{"fetched_at":"2026-03-29T16:36:15Z","count":15609,"tles":[{"name":"STARLINK-35480","line1":"1 66242U 25245J   26087.70698857  .00042067  00000+0  14238-2 0  9999","line2":"2 66242  53.1591 195.8809 0001199  87.1885 272.9253 15.30213464 24165","category":"Starlink"}]}